NORAD_CAT_ID,OBJECT_NAME,OBJECT_TYPE,EPOCH,MEAN_MOTION,ECCENTRICITY,INCLINATION,RA_OF_ASC_NODE,ARG_OF_PERICENTER,MEAN_ANOMALY,BSTAR,MEAN_MOTION_DOT,MEAN_MOTION_DDOT,TLE_LINE0,TLE_LINE1,TLE_LINE2,SEMIMAJOR_AXIS,PERIOD,APOGEE,PERIGEE,DECAYED
52262.0,STARLINK-3761,PAYLOAD,2022-07-17 14:00:01,15.08857265,0.0001812,53.214,324.6868,46.3787,101.9735,-0.0034814,-0.00055296,0.0,0 STARLINK-3761,1 52262U 22041B   22198.58334491 -.00055296  00000-0 -34814-2 0  9996,2 52262  53.2140 324.6868 0001812  46.3787 101.9735 15.08857265  1305,6917.828,95.436,540.946,538.439,0.0
52262.0,STARLINK-3761,PAYLOAD,2022-07-17 22:00:00,15.08838909,0.0001887,53.2149,323.1893,41.6347,118.307,-0.0029951,-0.0004763999999999,0.0,0 STARLINK-3761,1 52262U 22041B   22198.91667824 -.00047640  00000-0 -29951-2 0  9992,2 52262  53.2149 323.1893 0001887  41.6347 118.3070 15.08838909 14681,6917.884,95.438,541.054,538.443,0.0
52262.0,STARLINK-3761,PAYLOAD,2022-07-18 14:00:01,15.08825435,0.0001758,53.2141,320.1976,42.7079,140.3607,-0.00050634,-8.334e-05,0.0,0 STARLINK-3761,1 52262U 22041B   22199.58334491 -.00008334  00000-0 -50634-3 0  9997,2 52262  53.2141 320.1976 0001758  42.7079 140.3607 15.08825435 14785,6917.925,95.438,541.006,538.5740000000002,0.0
52262.0,STARLINK-3761,PAYLOAD,2022-07-18 22:00:00,15.08839276,0.0001786,53.2141,318.7011,40.2359,154.4027,-0.00043305,-7.173e-05,0.0,0 STARLINK-3761,1 52262U 22041B   22199.91667824 -.00007173  00000-0 -43305-3 0  9990,2 52262  53.2141 318.7011 0001786  40.2359 154.4027 15.08839276  1307,6917.8830000000025,95.438,540.9830000000002,538.512,0.0
52262.0,STARLINK-3761,PAYLOAD,2022-07-19 06:00:00,15.0882561,0.0001614,53.2141,317.2031,45.6395,160.6008,0.0029497,0.00046951,0.0,0 STARLINK-3761,1 52262U 22041B   22200.25001157  .00046951  00000-0  29497-2 0  9991,2 52262  53.2141 317.2031 0001614  45.6395 160.6008 15.08825610 14884,6917.924,95.438,540.906,538.673,0.0
52262.0,STARLINK-3761,PAYLOAD,2022-07-19 14:00:01,15.08861884,0.0001799,53.2141,315.7083,42.9092,174.9299,-0.00089008,-0.00014434,0.0,0 STARLINK-3761,1 52262U 22041B   22200.58334491 -.00014434  00000-0 -89008-3 0  9995,2 52262  53.2141 315.7083 0001799  42.9092 174.9299 15.08861884  1308,6917.813,95.436,540.923,538.434,0.0
52262.0,STARLINK-3761,PAYLOAD,2022-07-19 22:00:00,15.0887269,0.000185,53.2148,314.2104,41.1901,188.2504,-0.0042937,-0.00068039,0.0,0 STARLINK-3761,1 52262U 22041B   22200.91667824 -.00068039  00000-0 -42937-2 0  9990,2 52262  53.2148 314.2104 0001850  41.1901 188.2504 15.08872690  1305,6917.78,95.435,540.925,538.366,0.0
52262.0,STARLINK-3761,PAYLOAD,2022-07-20 14:00:01,15.08870705,0.000186,53.2139,311.2187,46.3957,206.2946,-0.0024146,-0.00038544,0.0,0 STARLINK-3761,1 52262U 22041B   22201.58334491 -.00038544  00000-0 -24146-2 0  9995,2 52262  53.2139 311.2187 0001860  46.3957 206.2946 15.08870705 15088,6917.7869999999975,95.436,540.938,538.365,0.0
52262.0,STARLINK-3761,PAYLOAD,2022-07-20 22:00:01,15.08868869,0.0001838,53.2135,309.7216,45.5739,218.7936,-0.0062341,-0.00098233,0.0,0 STARLINK-3761,1 52262U 22041B   22201.91668981 -.00098233  00000-0 -62341-2 0  9996,2 52262  53.2135 309.7216 0001838  45.5739 218.7936 15.08868869  1308,6917.792,95.436,540.929,538.386,0.0
52262.0,STARLINK-3761,PAYLOAD,2022-07-21 14:00:01,15.08806626,0.0001935,53.2134,306.7292,49.1395,238.3648,8.803799999999999e-05,1.112e-05,0.0,0 STARLINK-3761,1 52262U 22041B   22202.58335648  .00001112  00000-0  88038-4 0  9992,2 52262  53.2134 306.7292 0001935  49.1395 238.3648 15.08806626  1305,6917.982,95.44,541.186,538.509,0.0
52262.0,STARLINK-3761,PAYLOAD,2022-07-21 22:00:00,15.08832014,0.000188,53.2131,305.2322,48.4386,250.5545,-0.001715,-0.00027473,0.0,0 STARLINK-3761,1 52262U 22041B   22202.91667824 -.00027473  00000-0 -17150-2 0  9998,2 52262  53.2131 305.2322 0001880  48.4386 250.5545 15.08832014  1303,6917.905,95.438,541.07,538.469,0.0
52262.0,STARLINK-3761,PAYLOAD,2022-07-22 06:00:00,15.08812008,0.000179,53.2132,303.7346,54.6402,255.9284,0.0024199,0.00038406,0.0,0 STARLINK-3761,1 52262U 22041B   22203.25001157  .00038406  00000-0  24199-2 0  9994,2 52262  53.2132 303.7346 0001790  54.6402 255.9284 15.08812008  1301,6917.965999999999,95.439,541.069,538.5930000000002,0.0
52262.0,STARLINK-3761,PAYLOAD,2022-07-22 12:00:00,15.08842916,0.0001909,53.2137,302.6138,50.328,178.9312,-0.00058607,-9.604e-05,0.0,0 STARLINK-3761,1 52262U 22041B   22203.50001157 -.00009604  00000-0 -58607-3 0  9994,2 52262  53.2137 302.6138 0001909  50.3280 178.9312 15.08842916 15371,6917.871,95.437,541.057,538.4159999999998,0.0
52262.0,STARLINK-3761,PAYLOAD,2022-07-22 22:00:00,15.08863743,0.0001898,53.2128,300.7427,48.2423,285.505,-0.0015942999999999,-0.00025589,0.0,0 STARLINK-3761,1 52262U 22041B   22203.91667824 -.00025589  00000-0 -15943-2 0  9993,2 52262  53.2128 300.7427 0001898  48.2423 285.5050 15.08863743  1306,6917.808000000001,95.436,540.986,538.36,0.0
52262.0,STARLINK-3761,PAYLOAD,2022-07-23 06:00:00,15.08858567,0.0001781999999999,53.213,299.2452,53.1184,292.2422,-0.00058397,-9.575e-05,0.0,0 STARLINK-3761,1 52262U 22041B   22204.25001157 -.00009575  00000-0 -58397-3 0  9990,2 52262  53.2130 299.2452 0001782  53.1184 292.2422 15.08858567 15480,6917.824000000001,95.436,540.9209999999998,538.456,0.0
52262.0,STARLINK-3761,PAYLOAD,2022-07-23 14:00:01,15.08827223,0.0001921,53.213,297.7504,47.1446,309.8817,0.00052415,8.061e-05,0.0,0 STARLINK-3761,1 52262U 22041B   22204.58335648  .00008061  00000-0  52415-3 0  9993,2 52262  53.2130 297.7504 0001921  47.1446 309.8817 15.08827223  1304,6917.919,95.438,541.113,538.456,0.0
52262.0,STARLINK-3761,PAYLOAD,2022-07-23 22:00:00,15.08861729,0.0001855999999999,53.2129,296.253,46.1179,322.4343,-0.0014823,-0.00023816,0.0,0 STARLINK-3761,1 52262U 22041B   22204.91667824 -.00023816  00000-0 -14823-2 0  9991,2 52262  53.2129 296.2530 0001856  46.1179 322.4343 15.08861729  1308,6917.814,95.436,540.9630000000002,538.395,0.0
52262.0,STARLINK-3761,PAYLOAD,2022-07-24 14:00:01,15.08864325,0.0001921,53.2132,293.2609,44.7723,346.9934,-0.0030745,-0.0004892,0.0,0 STARLINK-3761,1 52262U 22041B   22205.58334491 -.00048920  00000-0 -30745-2 0  9990,2 52262  53.2132 293.2609 0001921  44.7723 346.9934 15.08864325 15697,6917.806,95.436,541.0,538.342,0.0
52262.0,STARLINK-3761,PAYLOAD,2022-07-24 22:00:00,15.08838942,0.0001761999999999,53.2133,291.7633,41.9927,1.3784,-0.0032046999999999,-0.0005093,0.0,0 STARLINK-3761,1 52262U 22041B   22205.91667824 -.00050930  00000-0 -32047-2 0  9997,2 52262  53.2133 291.7633 0001762  41.9927   1.3784 15.08838942  1300,6917.884,95.438,540.9680000000002,538.53,0.0
52262.0,STARLINK-3761,PAYLOAD,2022-07-25 06:00:00,15.08812539,0.0001683,53.2136,290.2662,46.3578,8.5809,0.0012539,0.00019709,0.0,0 STARLINK-3761,1 52262U 22041B   22206.25001157  .00019709  00000-0  12539-2 0  9997,2 52262  53.2136 290.2662 0001683  46.3578   8.5809 15.08812539 15791,6917.964,95.439,540.994,538.665,0.0
52262.0,STARLINK-3761,PAYLOAD,2022-07-25 14:00:01,15.08809803,0.0001894,53.2136,288.7716,41.4113,25.0995,0.001027,0.00016081,0.0,0 STARLINK-3761,1 52262U 22041B   22206.58334491  .00016081  00000-0  10270-2 0  9993,2 52262  53.2136 288.7716 0001894  41.4113  25.0995 15.08809803  1300,6917.973000000001,95.439,541.148,538.5269999999998,0.0
52262.0,STARLINK-3761,PAYLOAD,2022-07-25 22:00:00,15.0883721,0.0001793,53.2137,287.2741,42.0011,36.0742,-0.0015945,-0.00025573,0.0,0 STARLINK-3761,1 52262U 22041B   22206.91667824 -.00025573  00000-0 -15945-2 0  9991,2 52262  53.2137 287.2741 0001793  42.0011  36.0742 15.08837210 15899,6917.889,95.438,540.994,538.514,0.0
52262.0,STARLINK-3761,PAYLOAD,2022-07-26 14:00:01,15.088203,0.000193,53.2139,284.2825,41.2107,60.0317,0.0013444,0.00021161,0.0,0 STARLINK-3761,1 52262U 22041B   22207.58334491  .00021161  00000-0  13444-2 0  9995,2 52262  53.2139 284.2825 0001930  41.2107  60.0317 15.08820300  1309,6917.941,95.439,541.141,538.47,0.0
52262.0,STARLINK-3761,PAYLOAD,2022-07-26 22:00:00,15.0884649,0.0001802,53.2138,282.7849,42.81,70.0125,-0.0014154,-0.00022748,0.0,0 STARLINK-3761,1 52262U 22041B   22207.91667824 -.00022748  00000-0 -14154-2 0  9994,2 52262  53.2138 282.7849 0001802  42.8100  70.0125 15.08846490  1301,6917.861,95.437,540.972,538.479,0.0
52262.0,STARLINK-3761,PAYLOAD,2022-07-27 14:00:01,15.08838377,0.0001966999999999,53.2137,279.7935,41.648,94.3249,0.0017331,0.00027401,0.0,0 STARLINK-3761,1 52262U 22041B   22208.58334491  .00027401  00000-0  17331-2 0  9998,2 52262  53.2137 279.7935 0001967  41.6480  94.3249 15.08838377  1303,6917.885,95.438,541.111,538.39,0.0
52262.0,STARLINK-3761,PAYLOAD,2022-07-27 22:00:00,15.08863592,0.0001814,53.2135,278.2957,44.1871,103.3914,-0.0010807,-0.00017458,0.0,0 STARLINK-3761,1 52262U 22041B   22208.91667824 -.00017458  00000-0 -10807-2 0  9998,2 52262  53.2135 278.2957 0001814  44.1871 103.3914 15.08863592  1309,6917.808000000001,95.436,540.928,538.418,0.0
52262.0,STARLINK-3761,PAYLOAD,2022-07-28 14:00:01,15.08858784,0.0001916999999999,53.2135,275.3042,40.9533,129.8716,-0.0010405,-0.00016818,0.0,0 STARLINK-3761,1 52262U 22041B   22209.58334491 -.00016818  00000-0 -10405-2 0  9996,2 52262  53.2135 275.3042 0001917  40.9533 129.8716 15.08858784  1305,6917.823,95.436,541.014,538.362,0.0
52262.0,STARLINK-3761,PAYLOAD,2022-07-28 22:00:00,15.08841766,0.0001715,53.2136,273.8063,42.3559,140.0863,-0.00059095,-9.681e-05,0.0,0 STARLINK-3761,1 52262U 22041B   22209.91667824 -.00009681  00000-0 -59095-3 0  9991,2 52262  53.2136 273.8063 0001715  42.3559 140.0863 15.08841766  1302,6917.875,95.437,540.9259999999998,538.554,0.0
52262.0,STARLINK-3761,PAYLOAD,2022-07-29 14:00:01,15.08821676,0.0001895,53.2139,270.815,39.7989,165.8408,0.0024491,0.00038886,0.0,0 STARLINK-3761,1 52262U 22041B   22210.58334491  .00038886  00000-0  24491-2 0  9995,2 52262  53.2139 270.8150 0001895  39.7989 165.8408 15.08821676  1303,6917.936,95.439,541.112,538.49,0.0
